0 BREEZE-M DEB
1 38562U 06006DC  13293.92156336  .00012252  00000-0  11255-1 0   593
2 38562 051.7854 251.1340 5067697 055.4025 343.8941 05.34464361 67408
0 BREEZE-M DEB
1 38562U 06006DC  13295.04334267  .00012349  00000-0  11198-1 0   604
2 38562 051.7841 250.2923 5068461 056.0294 342.3425 05.34493688 67467
